format  = 'OEF2.0'       ! file format
rectype = 'ML'           ! record type (1L/ML)
refsys  = ECLM J2000     ! default reference system
END_OF_HEADER
2060
! Equinoctial elements: a, e*sin(LP), e*cos(LP), tan(i/2)*sin(LN), tan(i/2)*cos(LN), mean long.
 EQU   1.3638194187396200E+01  -0.057333213125935  -0.377806848791502   -0.029646594516034   -0.052881301322824 323.4796461667889
 MJD     57016.844859206 TDT
 MAG   5.697  0.150
! Non-grav parameters: model used, actual number in use, dimension
 LSP   0  0    6
! RMS    1.22891E-06   9.21244E-08   6.37233E-08   2.25256E-08   5.95035E-08   1.14136E-05
! EIG   2.16131E-08   2.75761E-08   3.96264E-08   5.98871E-08   8.15361E-08   1.24638E-06
! WEA   0.98595  -0.07043   0.00282  -0.00008   0.00029  -0.15143
 COV   1.510226972819950E-12 -1.078268953536703E-13  4.685604309075432E-15
 COV  -1.263208564548015E-16  4.701428273760818E-16 -1.325411934736722E-11
 COV   8.486905811467327E-15 -5.111526757383827E-16  3.214252806438108E-17
 COV  -1.366477750873063E-16  9.457713477369953E-13  4.060654754788572E-15
 COV   1.684987876655330E-18  7.708886331435188E-20  1.056427026529264E-13
 COV   5.074035618549292E-16 -3.466752535121827E-16 -2.100575367313007E-15
 COV   3.540665304097986E-15  8.473383262668676E-15  1.302692817620822E-10
 NOR   1.530953053861089E+13  8.378001921978064E+13 -3.250840069630636E+13
 NOR   2.011720089738101E+12 -9.371668265635470E+11  9.758558852271337E+11
 NOR   1.294310956096509E+15  9.097338548446119E+13 -3.996002119020388E+13
 NOR   3.718571129071402E+13 -9.495833870666515E+11  4.070954884920456E+14
 NOR  -2.211464274920664E+13  1.594293616989441E+13 -4.299543592833212E+12
 NOR   2.115548104725245E+15  2.040527514325829E+14  5.335695569672379E+11
 NOR   3.049161451011279E+14 -3.947960608849402E+11  1.173790197374076E+11
